[{"OBJECT_NAME":"GEESAT-4 10","OBJECT_ID":"2025-170K","EPOCH":"2026-03-09T23:21:58.377312","MEAN_MOTION":15.17890105,"ECCENTRICITY":0.0016786,"INCLINATION":49.9867,"RA_OF_ASC_NODE":229.1245,"ARG_OF_PERICENTER":279.3492,"MEAN_ANOMALY":80.5562,"EPHEMERIS_TYPE":0,"CLASSIFICATION_TYPE":"U","NORAD_CAT_ID":65128,"ELEMENT_SET_NO":999,"REV_AT_EPOCH":3230,"BSTAR":0.00064105503,"MEAN_MOTION_DOT":0.0001293,"MEAN_MOTION_DDOT":0},{"OBJECT_NAME":"TWILIGHT-1 OBJECT AH","OBJECT_ID":"2026-004AH","EPOCH":"2026-03-09T22:52:54.416640","MEAN_MOTION":15.18463683,"ECCENTRICITY":0.00080362,"INCLINATION":97.4496,"RA_OF_ASC_NODE":69.4327,"ARG_OF_PERICENTER":333.3354,"MEAN_ANOMALY":26.7466,"EPHEMERIS_TYPE":0,"CLASSIFICATION_TYPE":"U","NORAD_CAT_ID":67394,"ELEMENT_SET_NO":999,"REV_AT_EPOCH":870,"BSTAR":0.0001790114,"MEAN_MOTION_DOT":3.623e-5,"MEAN_MOTION_DDOT":0}]
